[{"OBJECT_NAME":"NOAA 2 (ITOS-D)","OBJECT_ID":"1972-082A","EPOCH":"2026-02-01T23:22:32.950272","MEAN_MOTION":12.53210505,"ECCENTRICITY":0.00042401,"INCLINATION":102.0179,"RA_OF_ASC_NODE":50.0169,"ARG_OF_PERICENTER":71.6348,"MEAN_ANOMALY":353.8844,"EPHEMERIS_TYPE":0,"CLASSIFICATION_TYPE":"U","NORAD_CAT_ID":6235,"ELEMENT_SET_NO":999,"REV_AT_EPOCH":43801,"BSTAR":8.091803e-5,"MEAN_MOTION_DOT":-3.4e-7,"MEAN_MOTION_DDOT":0},{"OBJECT_NAME":"OSCAR 7 (AO-7)","OBJECT_ID":"1974-089B","EPOCH":"2026-02-01T23:08:22.539264","MEAN_MOTION":12.53695581,"ECCENTRICITY":0.00123064,"INCLINATION":101.9969,"RA_OF_ASC_NODE":44.7712,"ARG_OF_PERICENTER":30.4133,"MEAN_ANOMALY":25.1503,"EPHEMERIS_TYPE":0,"CLASSIFICATION_TYPE":"U","NORAD_CAT_ID":7530,"ELEMENT_SET_NO":999,"REV_AT_EPOCH":34357,"BSTAR":5.7464931e-5,"MEAN_MOTION_DOT":-3.7e-7,"MEAN_MOTION_DDOT":0},{"OBJECT_NAME":"TIROS N","OBJECT_ID":"1978-096A","EPOCH":"2026-02-01T22:18:05.383008","MEAN_MOTION":14.19321186,"ECCENTRICITY":0.00092717,"INCLINATION":98.4667,"RA_OF_ASC_NODE":60.031,"ARG_OF_PERICENTER":274.8503,"MEAN_ANOMALY":85.1615,"EPHEMERIS_TYPE":0,"CLASSIFICATION_TYPE":"U","NORAD_CAT_ID":11060,"ELEMENT_SET_NO":999,"REV_AT_EPOCH":65956,"BSTAR":0.00010351222,"MEAN_MOTION_DOT":1.76e-6,"MEAN_MOTION_DDOT":0},{"OBJECT_NAME":"PHASE 3B (AO-10)","OBJECT_ID":"1983-058B","EPOCH":"2026-02-01T21:07:19.595424","MEAN_MOTION":2.0587136,"ECCENTRICITY":0.60571976,"INCLINATION":25.966,"RA_OF_ASC_NODE":242.397,"ARG_OF_PERICENTER":78.0086,"MEAN_ANOMALY":340.2671,"EPHEMERIS_TYPE":0,"CLASSIFICATION_TYPE":"U","NORAD_CAT_ID":14129,"ELEMENT_SET_NO":999,"REV_AT_EPOCH":29270,"BSTAR":0,"MEAN_MOTION_DOT":-7.6e-7,"MEAN_MOTION_DDOT":0},{"OBJECT_NAME":"HILAT","OBJECT_ID":"1983-063A","EPOCH":"2026-02-01T19:52:12.885024","MEAN_MOTION":14.38602676,"ECCENTRICITY":0.00392342,"INCLINATION":82.0243,"RA_OF_ASC_NODE":286.8684,"ARG_OF_PERICENTER":342.7366,"MEAN_ANOMALY":89.3186,"EPHEMERIS_TYPE":0,"CLASSIFICATION_TYPE":"U","NORAD_CAT_ID":14154,"ELEMENT_SET_NO":999,"REV_AT_EPOCH":22812,"BSTAR":0.00014590504,"MEAN_MOTION_DOT":4.66e-6,"MEAN_MOTION_DDOT":0},{"OBJECT_NAME":"UOSAT 2 (UO-11)","OBJECT_ID":"1984-021B","EPOCH":"2026-02-01T21:21:53.446752","MEAN_MOTION":14.90364186,"ECCENTRICITY":0.00060442,"INCLINATION":97.7883,"RA_OF_ASC_NODE":0.1523,"ARG_OF_PERICENTER":273.1526,"MEAN_ANOMALY":86.9,"EPHEMERIS_TYPE":0,"CLASSIFICATION_TYPE":"U","NORAD_CAT_ID":14781,"ELEMENT_SET_NO":999,"REV_AT_EPOCH":23697,"BSTAR":0.00013633532,"MEAN_MOTION_DOT":1.271e-5,"MEAN_MOTION_DDOT":0},{"OBJECT_NAME":"NOAA 9","OBJECT_ID":"1984-123A","EPOCH":"2026-02-01T23:41:59.455680","MEAN_MOTION":14.17025677,"ECCENTRICITY":0.00148483,"INCLINATION":99.1124,"RA_OF_ASC_NODE":56.4071,"ARG_OF_PERICENTER":16.6987,"MEAN_ANOMALY":40.6403,"EPHEMERIS_TYPE":0,"CLASSIFICATION_TYPE":"U","NORAD_CAT_ID":15427,"ELEMENT_SET_NO":999,"REV_AT_EPOCH":12427,"BSTAR":8.5312609e-5,"MEAN_MOTION_DOT":1.25e-6,"MEAN_MOTION_DDOT":0},{"OBJECT_NAME":"GEOSAT","OBJECT_ID":"1985-021A","EPOCH":"2026-02-01T22:59:39.498720","MEAN_MOTION":14.3988151,"ECCENTRICITY":0.0002452,"INCLINATION":108.0436,"RA_OF_ASC_NODE":159.9865,"ARG_OF_PERICENTER":270.649,"MEAN_ANOMALY":89.4371,"EPHEMERIS_TYPE":0,"CLASSIFICATION_TYPE":"U","NORAD_CAT_ID":15595,"ELEMENT_SET_NO":999,"REV_AT_EPOCH":14330,"BSTAR":0.00012246695,"MEAN_MOTION_DOT":2.49e-6,"MEAN_MOTION_DDOT":0},{"OBJECT_NAME":"EUTELSAT 1-F4 (ECS 4)","OBJECT_ID":"1987-078B","EPOCH":"2026-02-01T01:32:19.867776","MEAN_MOTION":0.98690536,"ECCENTRICITY":0.00106531,"INCLINATION":13.9247,"RA_OF_ASC_NODE":343.0758,"ARG_OF_PERICENTER":19.5732,"MEAN_ANOMALY":158.9721,"EPHEMERIS_TYPE":0,"CLASSIFICATION_TYPE":"U","NORAD_CAT_ID":18351,"ELEMENT_SET_NO":999,"REV_AT_EPOCH":12541,"BSTAR":0,"MEAN_MOTION_DOT":-1.79e-6,"MEAN_MOTION_DDOT":0},{"OBJECT_NAME":"PACSAT (AO-16)","OBJECT_ID":"1990-005D","EPOCH":"2026-02-01T22:39:42.213312","MEAN_MOTION":14.33886432,"ECCENTRICITY":0.00095339,"INCLINATION":98.8695,"RA_OF_ASC_NODE":65.3435,"ARG_OF_PERICENTER":268.3159,"MEAN_ANOMALY":163.7375,"EPHEMERIS_TYPE":0,"CLASSIFICATION_TYPE":"U","NORAD_CAT_ID":20439,"ELEMENT_SET_NO":999,"REV_AT_EPOCH":88255,"BSTAR":7.1629204e-5,"MEAN_MOTION_DOT":1.53e-6,"MEAN_MOTION_DDOT":0},{"OBJECT_NAME":"LUSAT (LO-19)","OBJECT_ID":"1990-005G","EPOCH":"2026-02-01T23:14:05.145504","MEAN_MOTION":14.34071852,"ECCENTRICITY":0.00106673,"INCLINATION":98.8949,"RA_OF_ASC_NODE":50.9828,"ARG_OF_PERICENTER":240.0997,"MEAN_ANOMALY":119.9128,"EPHEMERIS_TYPE":0,"CLASSIFICATION_TYPE":"U","NORAD_CAT_ID":20442,"ELEMENT_SET_NO":999,"REV_AT_EPOCH":88301,"BSTAR":7.3262627e-5,"MEAN_MOTION_DOT":1.58e-6,"MEAN_MOTION_DDOT":0},{"OBJECT_NAME":"IRS-1B","OBJECT_ID":"1991-061A","EPOCH":"2026-02-01T23:33:19.656864","MEAN_MOTION":13.97851188,"ECCENTRICITY":0.00244201,"INCLINATION":99.4121,"RA_OF_ASC_NODE":37.5504,"ARG_OF_PERICENTER":12.2456,"MEAN_ANOMALY":42.2999,"EPHEMERIS_TYPE":0,"CLASSIFICATION_TYPE":"U","NORAD_CAT_ID":21688,"ELEMENT_SET_NO":999,"REV_AT_EPOCH":64960,"BSTAR":-9.5821531e-5,"MEAN_MOTION_DOT":-1.83e-6,"MEAN_MOTION_DDOT":0},{"OBJECT_NAME":"COSMOS 2197","OBJECT_ID":"1992-042A","EPOCH":"2026-02-01T19:44:22.177824","MEAN_MOTION":12.64246225,"ECCENTRICITY":0.00117781,"INCLINATION":82.5979,"RA_OF_ASC_NODE":315.4485,"ARG_OF_PERICENTER":219.9362,"MEAN_ANOMALY":194.7395,"EPHEMERIS_TYPE":0,"CLASSIFICATION_TYPE":"U","NORAD_CAT_ID":22034,"ELEMENT_SET_NO":999,"REV_AT_EPOCH":54818,"BSTAR":8.272971e-5,"MEAN_MOTION_DOT":2.6e-7,"MEAN_MOTION_DDOT":0},{"OBJECT_NAME":"PEGASUS R/B","OBJECT_ID":"1993-009C","EPOCH":"2026-02-01T20:38:52.226016","MEAN_MOTION":14.57735765,"ECCENTRICITY":0.00443536,"INCLINATION":24.9761,"RA_OF_ASC_NODE":221.489,"ARG_OF_PERICENTER":87.4941,"MEAN_ANOMALY":273.0646,"EPHEMERIS_TYPE":0,"CLASSIFICATION_TYPE":"U","NORAD_CAT_ID":22491,"ELEMENT_SET_NO":999,"REV_AT_EPOCH":74986,"BSTAR":0.00023126451,"MEAN_MOTION_DOT":1.294e-5,"MEAN_MOTION_DDOT":0},{"OBJECT_NAME":"EYESAT A (AO-27)","OBJECT_ID":"1993-061C","EPOCH":"2026-02-01T18:22:00.710400","MEAN_MOTION":14.30900041,"ECCENTRICITY":0.00092075,"INCLINATION":98.7059,"RA_OF_ASC_NODE":100.1342,"ARG_OF_PERICENTER":133.3291,"MEAN_ANOMALY":226.8661,"EPHEMERIS_TYPE":0,"CLASSIFICATION_TYPE":"U","NORAD_CAT_ID":22825,"ELEMENT_SET_NO":999,"REV_AT_EPOCH":68763,"BSTAR":6.6306318e-5,"MEAN_MOTION_DOT":1.29e-6,"MEAN_MOTION_DDOT":0},{"OBJECT_NAME":"ITAMSAT (IO-26)","OBJECT_ID":"1993-061D","EPOCH":"2026-02-01T17:09:33.109056","MEAN_MOTION":14.31323087,"ECCENTRICITY":0.00099146,"INCLINATION":98.701,"RA_OF_ASC_NODE":99.9878,"ARG_OF_PERICENTER":118.8127,"MEAN_ANOMALY":241.4053,"EPHEMERIS_TYPE":0,"CLASSIFICATION_TYPE":"U","NORAD_CAT_ID":22826,"ELEMENT_SET_NO":999,"REV_AT_EPOCH":68793,"BSTAR":7.7593312e-5,"MEAN_MOTION_DOT":1.61e-6,"MEAN_MOTION_DDOT":0},{"OBJECT_NAME":"RADIO ROSTO (RS15)","OBJECT_ID":"1994-085A","EPOCH":"2026-02-01T22:53:30.618240","MEAN_MOTION":11.27583666,"ECCENTRICITY":0.01514101,"INCLINATION":64.8148,"RA_OF_ASC_NODE":161.9253,"ARG_OF_PERICENTER":28.8353,"MEAN_ANOMALY":332.0836,"EPHEMERIS_TYPE":0,"CLASSIFICATION_TYPE":"U","NORAD_CAT_ID":23439,"ELEMENT_SET_NO":999,"REV_AT_EPOCH":28065,"BSTAR":5.6061766e-5,"MEAN_MOTION_DOT":-4.0e-7,"MEAN_MOTION_DDOT":0}]
