NOAA 2 (ITOS-D)         
1 06235U 72082A   26032.97399248 -.00000034  00000+0  80918-4 0  9996
2 06235 102.0179  50.0169 0004240  71.6348 353.8844 12.53210505438013
OSCAR 7 (AO-7)          
1 07530U 74089B   26032.96414976 -.00000037  00000+0  57465-4 0  9993
2 07530 101.9969  44.7712 0012306  30.4133  25.1503 12.53695581343576
TIROS N                 
1 11060U 78096A   26032.92922897  .00000176  00000+0  10351-3 0  9995
2 11060  98.4667  60.0310 0009271 274.8503  85.1615 14.19321186659561
PHASE 3B (AO-10)        
1 14129U 83058B   26032.88008791 -.00000076  00000+0  00000+0 0  9997
2 14129  25.9660 242.3970 6057197  78.0086 340.2671  2.05871360292703
HILAT                   
1 14154U 83063A   26032.82792691  .00000466  00000+0  14591-3 0  9990
2 14154  82.0243 286.8684 0039234 342.7366  89.3186 14.38602676228123
UOSAT 2 (UO-11)         
1 14781U 84021B   26032.89020193  .00001271  00000+0  13634-3 0  9991
2 14781  97.7883   0.1523 0006044 273.1526  86.9000 14.90364186236978
NOAA 9                  
1 15427U 84123A   26032.98749370  .00000125  00000+0  85313-4 0  9998
2 15427  99.1124  56.4071 0014848  16.6987  40.6403 14.17025677124275
GEOSAT                  
1 15595U 85021A   26032.95809605  .00000249  00000+0  12247-3 0  9999
2 15595 108.0436 159.9865 0002452 270.6490  89.4371 14.39881510143306
EUTELSAT 1-F4 (ECS 4)   
1 18351U 87078B   26032.06411884 -.00000179  00000+0  00000+0 0  9999
2 18351  13.9247 343.0758 0010653  19.5732 158.9721  0.98690536125410
PACSAT (AO-16)          
1 20439U 90005D   26032.94423858  .00000153  00000+0  71629-4 0  9995
2 20439  98.8695  65.3435 0009533 268.3159 163.7375 14.33886432882557
LUSAT (LO-19)           
1 20442U 90005G   26032.96811511  .00000158  00000+0  73263-4 0  9999
2 20442  98.8949  50.9828 0010667 240.0997 119.9128 14.34071852883010
IRS-1B                  
1 21688U 91061A   26032.98147751 -.00000183  00000+0 -95822-4 0  9990
2 21688  99.4121  37.5504 0024420  12.2456  42.2999 13.97851188649600
COSMOS 2197             
1 22034U 92042A   26032.82247891  .00000026  00000+0  82730-4 0  9993
2 22034  82.5979 315.4485 0011778 219.9362 194.7395 12.64246225548187
PEGASUS R/B             
1 22491U 93009C   26032.86032669  .00001294  00000+0  23126-3 0  9994
2 22491  24.9761 221.4890 0044353  87.4941 273.0646 14.57735765749869
EYESAT A (AO-27)        
1 22825U 93061C   26032.76528600  .00000129  00000+0  66306-4 0  9991
2 22825  98.7059 100.1342 0009207 133.3291 226.8661 14.30900041687633
ITAMSAT (IO-26)         
1 22826U 93061D   26032.71496654  .00000161  00000+0  77593-4 0  9996
2 22826  98.7010  99.9878 0009914 118.8127 241.4053 14.31323087687932
RADIO ROSTO (RS15)      
1 23439U 94085A   26032.95382660 -.00000040  00000+0  56062-4 0  9996
2 23439  64.8148 161.9253 0151410  28.8353 332.0836 11.27583666280653
